{
  "type": "FeatureCollection",
  "features": [
    {
      "type": "Feature",
      "properties": {
        "norad_id": 34554,
        "name": "COSMOS 2251 DEB",
        "group": "cosmos-2251-debris",
        "lat": 73.98828143259591,
        "lon": 41.39186792509012,
        "alt_km": 752.135027690304,
        "timestamp": "2025-12-03T17:47:51.112809+00:00",
        "meta_object_name": "COSMOS 2251 DEB",
        "meta_object_id": "1993-036UQ",
        "meta_epoch": "2025-12-02T18:19:59.022048",
        "meta_mean_motion": 14.37902673,
        "meta_eccentricity": 0.00225472,
        "meta_inclination": 74.0383,
        "meta_ra_of_asc_node": 317.3604,
        "meta_arg_of_pericenter": 22.1475,
        "meta_mean_anomaly": 47.5558,
        "meta_ephemeris_type": 0,
        "meta_classification_type": "U",
        "meta_norad_cat_id": 34554,
        "meta_element_set_no": 999,
        "meta_rev_at_epoch": 87612,
        "meta_bstar": 0.0004572497,
        "meta_mean_motion_dot": 1.358e-05,
        "meta_mean_motion_ddot": 0,
        "tle_line1": "1 34554U 93036UQ  25336.76387757  .00001358  00000+0  45725-3 0  9993",
        "tle_line2": "2 34554  74.0383 317.3604 0022547  22.1475  47.5558 14.37902673876123"
      },
      "geometry": {
        "type": "Point",
        "coordinates": [
          41.39186792509012,
          73.98828143259591
        ]
      }
    },
    {
      "type": "Feature",
      "properties": {
        "norad_id": 34556,
        "name": "COSMOS 2251 DEB",
        "group": "cosmos-2251-debris",
        "lat": 41.66401790005628,
        "lon": 157.31139535339406,
        "alt_km": 640.0253319729409,
        "timestamp": "2025-12-03T17:47:51.112820+00:00",
        "meta_object_name": "COSMOS 2251 DEB",
        "meta_object_id": "1993-036US",
        "meta_epoch": "2025-12-03T11:14:24.353088",
        "meta_mean_motion": 14.77306147,
        "meta_eccentricity": 0.0009145,
        "meta_inclination": 74.0148,
        "meta_ra_of_asc_node": 143.0694,
        "meta_arg_of_pericenter": 201.746,
        "meta_mean_anomaly": 189.6247,
        "meta_ephemeris_type": 0,
        "meta_classification_type": "U",
        "meta_norad_cat_id": 34556,
        "meta_element_set_no": 999,
        "meta_rev_at_epoch": 88192,
        "meta_bstar": 0.0030486,
        "meta_mean_motion_dot": 0.00021698,
        "meta_mean_motion_ddot": 0,
        "tle_line1": "1 34556U 93036US  25337.46833742  .00021698  00000+0  30486-2 0  9999",
        "tle_line2": "2 34556  74.0148 143.0694 0009145 201.7460 189.6247 14.77306147881920"
      },
      "geometry": {
        "type": "Point",
        "coordinates": [
          157.31139535339406,
          41.66401790005628
        ]
      }
    },
    {
      "type": "Feature",
      "properties": {
        "norad_id": 34560,
        "name": "COSMOS 2251 DEB",
        "group": "cosmos-2251-debris",
        "lat": 56.93271150264981,
        "lon": -46.467293870646465,
        "alt_km": 655.2756510381059,
        "timestamp": "2025-12-03T17:47:51.112831+00:00",
        "meta_object_name": "COSMOS 2251 DEB",
        "meta_object_id": "1993-036UW",
        "meta_epoch": "2025-12-03T06:37:21.000000",
        "meta_mean_motion": 14.71719361,
        "meta_eccentricity": 0.0015384,
        "meta_inclination": 74.0159,
        "meta_ra_of_asc_node": 160.5584,
        "meta_arg_of_pericenter": 241.2457,
        "meta_mean_anomaly": 292.2217,
        "meta_ephemeris_type": 0,
        "meta_classification_type": "U",
        "meta_norad_cat_id": 34560,
        "meta_element_set_no": 999,
        "meta_rev_at_epoch": 88112,
        "meta_bstar": 0.0026421,
        "meta_mean_motion_dot": 0.00016519,
        "meta_mean_motion_ddot": 0,
        "tle_line1": "1 34560U 93036UW  25337.27593750  .00016519  00000+0  26421-2 0  9995",
        "tle_line2": "2 34560  74.0159 160.5584 0015384 241.2457 292.2217 14.71719361881126"
      },
      "geometry": {
        "type": "Point",
        "coordinates": [
          -46.467293870646465,
          56.93271150264981
        ]
      }
    },
    {
      "type": "Feature",
      "properties": {
        "norad_id": 34563,
        "name": "COSMOS 2251 DEB",
        "group": "cosmos-2251-debris",
        "lat": -11.146345113265667,
        "lon": -142.7262415409573,
        "alt_km": 733.0303579276688,
        "timestamp": "2025-12-03T17:47:51.112841+00:00",
        "meta_object_name": "COSMOS 2251 DEB",
        "meta_object_id": "1993-036UZ",
        "meta_epoch": "2025-12-03T11:30:53.614944",
        "meta_mean_motion": 14.46460045,
        "meta_eccentricity": 0.0013771,
        "meta_inclination": 74.0388,
        "meta_ra_of_asc_node": 220.9949,
        "meta_arg_of_pericenter": 315.3305,
        "meta_mean_anomaly": 110.513,
        "meta_ephemeris_type": 0,
        "meta_classification_type": "U",
        "meta_norad_cat_id": 34563,
        "meta_element_set_no": 999,
        "meta_rev_at_epoch": 88063,
        "meta_bstar": 0.00072358,
        "meta_mean_motion_dot": 2.579e-05,
        "meta_mean_motion_ddot": 0,
        "tle_line1": "1 34563U 93036UZ  25337.47978721  .00002579  00000+0  72358-3 0  9997",
        "tle_line2": "2 34563  74.0388 220.9949 0013771 315.3305 110.5130 14.46460045880637"
      },
      "geometry": {
        "type": "Point",
        "coordinates": [
          -142.7262415409573,
          -11.146345113265667
        ]
      }
    },
    {
      "type": "Feature",
      "properties": {
        "norad_id": 34564,
        "name": "COSMOS 2251 DEB",
        "group": "cosmos-2251-debris",
        "lat": -42.76351681016902,
        "lon": -120.6956659847117,
        "alt_km": 753.187633695582,
        "timestamp": "2025-12-03T17:47:51.112852+00:00",
        "meta_object_name": "COSMOS 2251 DEB",
        "meta_object_id": "1993-036VA",
        "meta_epoch": "2025-12-03T05:22:10.608096",
        "meta_mean_motion": 14.40662556,
        "meta_eccentricity": 0.0018626,
        "meta_inclination": 74.0328,
        "meta_ra_of_asc_node": 255.6164,
        "meta_arg_of_pericenter": 1.3338,
        "meta_mean_anomaly": 149.3916,
        "meta_ephemeris_type": 0,
        "meta_classification_type": "U",
        "meta_norad_cat_id": 34564,
        "meta_element_set_no": 999,
        "meta_rev_at_epoch": 87869,
        "meta_bstar": 0.00040747,
        "meta_mean_motion_dot": 1.277e-05,
        "meta_mean_motion_ddot": 0,
        "tle_line1": "1 34564U 93036VA  25337.22373389  .00001277  00000+0  40747-3 0  9991",
        "tle_line2": "2 34564  74.0328 255.6164 0018626   1.3338 149.3916 14.40662556878698"
      },
      "geometry": {
        "type": "Point",
        "coordinates": [
          -120.6956659847117,
          -42.76351681016902
        ]
      }
    },
    {
      "type": "Feature",
      "properties": {
        "norad_id": 34567,
        "name": "COSMOS 2251 DEB",
        "group": "cosmos-2251-debris",
        "lat": -0.11111092786827417,
        "lon": -6.9930412707267,
        "alt_km": 794.9704459727618,
        "timestamp": "2025-12-03T17:47:51.112863+00:00",
        "meta_object_name": "COSMOS 2251 DEB",
        "meta_object_id": "1993-036VD",
        "meta_epoch": "2025-12-03T00:40:02.275968",
        "meta_mean_motion": 14.24000572,
        "meta_eccentricity": 0.00746841,
        "meta_inclination": 74.0399,
        "meta_ra_of_asc_node": 174.2594,
        "meta_arg_of_pericenter": 250.5731,
        "meta_mean_anomaly": 232.6611,
        "meta_ephemeris_type": 0,
        "meta_classification_type": "U",
        "meta_norad_cat_id": 34567,
        "meta_element_set_no": 999,
        "meta_rev_at_epoch": 86986,
        "meta_bstar": 0.00026159176,
        "meta_mean_motion_dot": 5.92e-06,
        "meta_mean_motion_ddot": 0,
        "tle_line1": "1 34567U 93036VD  25337.02780412  .00000592  00000+0  26159-3 0  9991",
        "tle_line2": "2 34567  74.0399 174.2594 0074684 250.5731 232.6611 14.24000572869866"
      },
      "geometry": {
        "type": "Point",
        "coordinates": [
          -6.9930412707267,
          -0.11111092786827417
        ]
      }
    },
    {
      "type": "Feature",
      "properties": {
        "norad_id": 34569,
        "name": "COSMOS 2251 DEB",
        "group": "cosmos-2251-debris",
        "lat": -36.60744802678403,
        "lon": -157.90934951357943,
        "alt_km": 800.2105623329599,
        "timestamp": "2025-12-03T17:47:51.112874+00:00",
        "meta_object_name": "COSMOS 2251 DEB",
        "meta_object_id": "1993-036VF",
        "meta_epoch": "2025-12-03T11:31:28.580160",
        "meta_mean_motion": 14.2470951,
        "meta_eccentricity": 0.0156868,
        "meta_inclination": 73.9904,
        "meta_ra_of_asc_node": 214.878,
        "meta_arg_of_pericenter": 45.4126,
        "meta_mean_anomaly": 18.0849,
        "meta_ephemeris_type": 0,
        "meta_classification_type": "U",
        "meta_norad_cat_id": 34569,
        "meta_element_set_no": 999,
        "meta_rev_at_epoch": 86836,
        "meta_bstar": 0.00080346,
        "meta_mean_motion_dot": 2.1e-05,
        "meta_mean_motion_ddot": 0,
        "tle_line1": "1 34569U 93036VF  25337.48019190  .00002100  00000+0  80346-3 0  9996",
        "tle_line2": "2 34569  73.9904 214.8780 0156868  45.4126  18.0849 14.24709510868361"
      },
      "geometry": {
        "type": "Point",
        "coordinates": [
          -157.90934951357943,
          -36.60744802678403
        ]
      }
    }
  ]
}